{
    "links": {
        "self": "http://www.neowsapp.com/rest/v1/neo/54051301?api_key=iIulBulltgU6a56xZRHN4H3l9WmuAYTsLGpBGhQ2"
    },
    "id": "54051301",
    "neo_reference_id": "54051301",
    "name": "(2020 QH3)",
    "designation": "2020 QH3",
    "nasa_jpl_url": "http://ssd.jpl.nasa.gov/sbdb.cgi?sstr=54051301",
    "absolute_magnitude_h": 24.259,
    "estimated_diameter": {
        "kilometers": {
            "estimated_diameter_min": 0.0373899579,
            "estimated_diameter_max": 0.0836064876
        },
        "meters": {
            "estimated_diameter_min": 37.3899579392,
            "estimated_diameter_max": 83.6064876279
        },
        "miles": {
            "estimated_diameter_min": 0.0232330356,
            "estimated_diameter_max": 0.0519506468
        },
        "feet": {
            "estimated_diameter_min": 122.6704696052,
            "estimated_diameter_max": 274.299508869
        }
    },
    "is_potentially_hazardous_asteroid": false,
    "close_approach_data": [
        {
            "close_approach_date": "2009-08-18",
            "close_approach_date_full": "2009-Aug-18 06:47",
            "epoch_date_close_approach": 1250578020000,
            "relative_velocity": {
                "kilometers_per_second": "9.9212948279",
                "kilometers_per_hour": "35716.661380462",
                "miles_per_hour": "22192.9444005432"
            },
            "miss_distance": {
                "astronomical": "0.2796592971",
                "lunar": "108.7874665719",
                "kilometers": "41836435.171857177",
                "miles": "25995955.3673239626"
            },
            "orbiting_body": "Earth"
        },
        {
            "close_approach_date": "2020-08-22",
            "close_approach_date_full": "2020-Aug-22 08:42",
            "epoch_date_close_approach": 1598085720000,
            "relative_velocity": {
                "kilometers_per_second": "8.7301924319",
                "kilometers_per_hour": "31428.6927547566",
                "miles_per_hour": "19528.5674508653"
            },
            "miss_distance": {
                "astronomical": "0.2009402448",
                "lunar": "78.1657552272",
                "kilometers": "30060232.619358576",
                "miles": "18678562.4132213088"
            },
            "orbiting_body": "Earth"
        }
    ],
    "orbital_data": {
        "orbit_id": "3",
        "orbit_determination_date": "2020-09-11 07:49:08",
        "first_observation_date": "2020-08-15",
        "last_observation_date": "2020-09-10",
        "data_arc_in_days": 26,
        "observations_used": 12,
        "orbit_uncertainty": "7",
        "minimum_orbit_intersection": ".197465",
        "jupiter_tisserand_invariant": "4.129",
        "epoch_osculation": "2459000.5",
        "eccentricity": ".2880687657616512",
        "semi_major_axis": "1.687490241486055",
        "inclination": "16.5073061408811",
        "ascending_node_longitude": "335.0184557411821",
        "orbital_period": "800.6824915640999",
        "perihelion_distance": "1.201377010386336",
        "perihelion_argument": "343.8415967788272",
        "aphelion_distance": "2.173603472585774",
        "perihelion_time": "2459069.231884934371",
        "mean_anomaly": "329.0970155622635",
        "mean_motion": ".4496164257279499",
        "equinox": "J2000",
        "orbit_class": {
            "orbit_class_type": "AMO",
            "orbit_class_description": "Near-Earth asteroid orbits similar to that of 1221 Amor",
            "orbit_class_range": "1.017 AU < q (perihelion) < 1.3 AU"
        }
    },
    "is_sentry_object": false
}